{
  "type": "FeatureCollection",
  "features": [
    {
      "type": "Feature",
      "properties": {
        "norad_id": 40069,
        "name": "METEOR-M 2",
        "group": "weather",
        "lat": -34.49061838272741,
        "lon": -29.10670923601654,
        "alt_km": 828.5064925088664,
        "timestamp": "2025-12-13T10:41:25.408269+00:00",
        "meta_object_name": "METEOR-M 2",
        "meta_object_id": "2014-037A",
        "meta_epoch": "2025-12-13T00:43:04.012320",
        "meta_mean_motion": 14.21386364,
        "meta_eccentricity": 0.00049908,
        "meta_inclination": 98.4905,
        "meta_ra_of_asc_node": 324.6032,
        "meta_arg_of_pericenter": 208.8837,
        "meta_mean_anomaly": 151.2066,
        "meta_ephemeris_type": 0,
        "meta_classification_type": "U",
        "meta_norad_cat_id": 40069,
        "meta_element_set_no": 999,
        "meta_rev_at_epoch": 59287,
        "meta_bstar": 9.5654846e-05,
        "meta_mean_motion_dot": 1.67e-06,
        "meta_mean_motion_ddot": 0,
        "tle_line1": "1 40069U 14037A   25347.02990755  .00000167  00000+0  95655-4 0  9999",
        "tle_line2": "2 40069  98.4905 324.6032 0004990 208.8837 151.2066 14.21386364592874"
      },
      "geometry": {
        "type": "Point",
        "coordinates": [
          -29.10670923601654,
          -34.49061838272741
        ]
      }
    },
    {
      "type": "Feature",
      "properties": {
        "norad_id": 40267,
        "name": "HIMAWARI-8",
        "group": "weather",
        "lat": 0.01669492683646773,
        "lon": 23.381491313173917,
        "alt_km": 35785.713118586704,
        "timestamp": "2025-12-13T10:41:25.408281+00:00",
        "meta_object_name": "HIMAWARI-8",
        "meta_object_id": "2014-060A",
        "meta_epoch": "2025-12-12T05:35:19.004640",
        "meta_mean_motion": 1.00270039,
        "meta_eccentricity": 0.00012109,
        "meta_inclination": 0.0353,
        "meta_ra_of_asc_node": 190.2834,
        "meta_arg_of_pericenter": 114.4453,
        "meta_mean_anomaly": 0.9332,
        "meta_ephemeris_type": 0,
        "meta_classification_type": "U",
        "meta_norad_cat_id": 40267,
        "meta_element_set_no": 999,
        "meta_rev_at_epoch": 4088,
        "meta_bstar": 0,
        "meta_mean_motion_dot": -2.66e-06,
        "meta_mean_motion_ddot": 0,
        "tle_line1": "1 40267U 14060A   25346.23285885 -.00000266  00000+0  00000+0 0  9994",
        "tle_line2": "2 40267   0.0353 190.2834 0001210 114.4453   0.9332  1.00270039 40884"
      },
      "geometry": {
        "type": "Point",
        "coordinates": [
          23.381491313173917,
          0.01669492683646773
        ]
      }
    },
    {
      "type": "Feature",
      "properties": {
        "norad_id": 40367,
        "name": "FENGYUN 2G",
        "group": "weather",
        "lat": -5.165188214436378,
        "lon": -17.73647605330057,
        "alt_km": 35784.25822302092,
        "timestamp": "2025-12-13T10:41:25.408294+00:00",
        "meta_object_name": "FENGYUN 2G",
        "meta_object_id": "2014-090A",
        "meta_epoch": "2025-12-12T19:43:26.315040",
        "meta_mean_motion": 1.00264152,
        "meta_eccentricity": 0.00031038,
        "meta_inclination": 5.1689,
        "meta_ra_of_asc_node": 75.0978,
        "meta_arg_of_pericenter": 198.3363,
        "meta_mean_anomaly": 203.7148,
        "meta_ephemeris_type": 0,
        "meta_classification_type": "U",
        "meta_norad_cat_id": 40367,
        "meta_element_set_no": 999,
        "meta_rev_at_epoch": 4013,
        "meta_bstar": 0,
        "meta_mean_motion_dot": -2.89e-06,
        "meta_mean_motion_ddot": 0,
        "tle_line1": "1 40367U 14090A   25346.82183235 -.00000289  00000+0  00000+0 0  9994",
        "tle_line2": "2 40367   5.1689  75.0978 0003103 198.3363 203.7148  1.00264152 40131"
      },
      "geometry": {
        "type": "Point",
        "coordinates": [
          -17.73647605330057,
          -5.165188214436378
        ]
      }
    },
    {
      "type": "Feature",
      "properties": {
        "norad_id": 40732,
        "name": "METEOSAT-11 (MSG-4)",
        "group": "weather",
        "lat": -0.020560756938333112,
        "lon": -107.98173527904525,
        "alt_km": 35784.89084924013,
        "timestamp": "2025-12-13T10:41:25.408306+00:00",
        "meta_object_name": "METEOSAT-11 (MSG-4)",
        "meta_object_id": "2015-034A",
        "meta_epoch": "2025-12-12T22:05:04.319232",
        "meta_mean_motion": 1.00267545,
        "meta_eccentricity": 9.209e-05,
        "meta_inclination": 2.7359,
        "meta_ra_of_asc_node": 72.0007,
        "meta_arg_of_pericenter": 127.0226,
        "meta_mean_anomaly": 223.3927,
        "meta_ephemeris_type": 0,
        "meta_classification_type": "U",
        "meta_norad_cat_id": 40732,
        "meta_element_set_no": 999,
        "meta_rev_at_epoch": 534,
        "meta_bstar": 0,
        "meta_mean_motion_dot": 7.3e-07,
        "meta_mean_motion_ddot": 0,
        "tle_line1": "1 40732U 15034A   25346.92018888  .00000073  00000+0  00000+0 0  9991",
        "tle_line2": "2 40732   2.7359  72.0007 0000920 127.0226 223.3927  1.00267545  5341"
      },
      "geometry": {
        "type": "Point",
        "coordinates": [
          -107.98173527904525,
          -0.020560756938333112
        ]
      }
    },
    {
      "type": "Feature",
      "properties": {
        "norad_id": 41105,
        "name": "ELEKTRO-L 2",
        "group": "weather",
        "lat": 2.573385042023771,
        "lon": -131.66966940807572,
        "alt_km": 35774.658965379596,
        "timestamp": "2025-12-13T10:41:25.408318+00:00",
        "meta_object_name": "ELEKTRO-L 2",
        "meta_object_id": "2015-074A",
        "meta_epoch": "2025-12-12T23:41:05.885088",
        "meta_mean_motion": 1.0027232,
        "meta_eccentricity": 0.00039313,
        "meta_inclination": 6.2267,
        "meta_ra_of_asc_node": 72.8257,
        "meta_arg_of_pericenter": 204.3127,
        "meta_mean_anomaly": 145.5628,
        "meta_ephemeris_type": 0,
        "meta_classification_type": "U",
        "meta_norad_cat_id": 41105,
        "meta_element_set_no": 999,
        "meta_rev_at_epoch": 3663,
        "meta_bstar": 0,
        "meta_mean_motion_dot": -1.06e-06,
        "meta_mean_motion_ddot": 0,
        "tle_line1": "1 41105U 15074A   25346.98687367 -.00000106  00000+0  00000+0 0  9998",
        "tle_line2": "2 41105   6.2267  72.8257 0003931 204.3127 145.5628  1.00272320 36638"
      },
      "geometry": {
        "type": "Point",
        "coordinates": [
          -131.66966940807572,
          2.573385042023771
        ]
      }
    },
    {
      "type": "Feature",
      "properties": {
        "norad_id": 41752,
        "name": "INSAT-3DR",
        "group": "weather",
        "lat": -0.07663465391640534,
        "lon": -43.16119676479564,
        "alt_km": 35744.240614498,
        "timestamp": "2025-12-13T10:41:25.408330+00:00",
        "meta_object_name": "INSAT-3DR",
        "meta_object_id": "2016-054A",
        "meta_epoch": "2025-12-12T20:40:52.275360",
        "meta_mean_motion": 1.00270917,
        "meta_eccentricity": 0.00143455,
        "meta_inclination": 0.0922,
        "meta_ra_of_asc_node": 86.6925,
        "meta_arg_of_pericenter": 184.0878,
        "meta_mean_anomaly": 195.2354,
        "meta_ephemeris_type": 0,
        "meta_classification_type": "U",
        "meta_norad_cat_id": 41752,
        "meta_element_set_no": 999,
        "meta_rev_at_epoch": 3395,
        "meta_bstar": 0,
        "meta_mean_motion_dot": -6.5e-07,
        "meta_mean_motion_ddot": 0,
        "tle_line1": "1 41752U 16054A   25346.86171615 -.00000065  00000+0  00000+0 0  9990",
        "tle_line2": "2 41752   0.0922  86.6925 0014345 184.0878 195.2354  1.00270917 33959"
      },
      "geometry": {
        "type": "Point",
        "coordinates": [
          -43.16119676479564,
          -0.07663465391640534
        ]
      }
    },
    {
      "type": "Feature",
      "properties": {
        "norad_id": 41836,
        "name": "HIMAWARI-9",
        "group": "weather",
        "lat": -0.012993992486566703,
        "lon": 23.51805437897897,
        "alt_km": 35787.31099957414,
        "timestamp": "2025-12-13T10:41:25.408342+00:00",
        "meta_object_name": "HIMAWARI-9",
        "meta_object_id": "2016-064A",
        "meta_epoch": "2025-12-12T22:42:33.992928",
        "meta_mean_motion": 1.00273884,
        "meta_eccentricity": 0.00011859,
        "meta_inclination": 0.0371,
        "meta_ra_of_asc_node": 95.8596,
        "meta_arg_of_pericenter": 177.2098,
        "meta_mean_anomaly": 290.2335,
        "meta_ephemeris_type": 0,
        "meta_classification_type": "U",
        "meta_norad_cat_id": 41836,
        "meta_element_set_no": 999,
        "meta_rev_at_epoch": 3334,
        "meta_bstar": 0,
        "meta_mean_motion_dot": -2.62e-06,
        "meta_mean_motion_ddot": 0,
        "tle_line1": "1 41836U 16064A   25346.94622677 -.00000262  00000+0  00000+0 0  9991",
        "tle_line2": "2 41836   0.0371  95.8596 0001185 177.2098 290.2335  1.00273884 33346"
      },
      "geometry": {
        "type": "Point",
        "coordinates": [
          23.51805437897897,
          -0.012993992486566703
        ]
      }
    }
  ]
}